OBJECT_NAME,OBJECT_ID,EPOCH,MEAN_MOTION,ECCENTRICITY,INCLINATION,RA_OF_ASC_NODE,ARG_OF_PERICENTER,MEAN_ANOMALY,EPHEMERIS_TYPE,CLASSIFICATION_TYPE,NORAD_CAT_ID,ELEMENT_SET_NO,REV_AT_EPOCH,BSTAR,MEAN_MOTION_DOT,MEAN_MOTION_DDOT
QB50P1,2014-033R,2026-06-07T23:43:43.953024,15.18121687,.0007153,98.0970,169.4906,252.8100,107.2349,0,U,40025,999,65163,.45488E-3,.9215E-4,0
DTUSAT-2,2014-033W,2026-06-07T22:11:52.179072,15.14901729,.000611,98.0866,156.0650,264.3965,95.6569,0,U,40030,999,65128,.40854E-3,.7538E-4,0
QB50P2,2014-033Y,2026-06-07T23:39:58.023936,15.15044033,.0007032,98.0757,155.2946,193.2890,166.8157,0,U,40032,999,65127,.4177E-3,.7741E-4,0
PERSEUS-M1,2014-033AF,2026-06-07T19:17:04.866720,14.95606924,.0010797,97.9642,102.7818,337.2410,22.8330,0,U,40039,999,64923,.22194E-3,.2406E-4,0
POLYITAN-1,2014-033AJ,2026-06-08T01:05:03.222816,15.32938693,.0007909,98.0952,184.4437,168.1396,192.0032,0,U,40042,999,65219,.59961E-3,.19032E-3,0
TIGRISAT,2014-033AK,2026-06-08T03:43:13.001376,14.85126633,.0050717,97.7825,309.3746,104.0252,256.6609,0,U,40043,999,64428,.28416E-3,.2433E-4,0
CANX-4,2014-034C,2026-06-07T23:09:33.928128,14.81248580,.0013752,98.3134,33.9390,45.0821,315.1504,0,U,40055,999,64316,.1493E-3,.1108E-4,0
CANX-5,2014-034D,2026-06-08T02:22:00.513984,14.81266002,.0013746,98.3136,34.1207,44.8140,315.4179,0,U,40056,999,63399,.14925E-3,.1108E-4,0
GONETS-M 10,2014-036C,2026-06-08T05:11:17.323008,12.42945420,.0022272,82.5113,313.2477,159.4852,200.7127,0,U,40063,999,54113,.34023E-3,.57E-6,0
METEOR-M 2,2014-037A,2026-06-08T04:56:43.722240,14.21458677,.0007008,98.5114,135.2629,66.0686,294.1225,0,U,40069,999,61804,.68589E-4,.108E-5,0
DX1,2014-037C,2026-06-08T03:51:55.830240,14.89958243,.0006174,98.3865,120.3156,310.7711,49.2968,0,U,40071,999,64476,.22022E-3,.2059E-4,0
UKUBE-1,2014-037F,2026-06-07T23:28:58.205280,15.13407368,.0002064,98.4241,161.2838,144.6148,215.5218,0,U,40074,999,64716,.50869E-3,.9011E-4,0
GAOFEN-2,2014-049A,2026-06-08T04:33:20.869632,14.80888095,.0005897,98.0106,223.4055,262.8434,97.2108,0,U,40118,999,63790,.47155E-4,.311E-5,0
BRITE-PL2 (HEWELIUSZ),2014-049B,2026-06-07T19:11:06.444096,14.94563277,.0015142,97.9088,270.7280,136.5124,223.7293,0,U,40119,999,64004,.27515E-3,.2922E-4,0
CBERS 4,2014-079A,2026-06-08T04:26:29.029344,14.35507116,.0002042,98.3530,216.2988,71.9227,288.2182,0,U,40336,999,60266,.81836E-4,.193E-5,0
SMAP,2015-003A,2026-06-08T04:34:57.648000,14.63358828,.0001266,98.1276,166.4130,93.1601,266.9746,0,U,40376,999,60630,.98626E-4,.463E-5,0
GONETS-M 11,2015-020A,2026-06-08T03:41:13.864416,12.42877113,.0017003,82.4873,36.6207,24.7191,335.4699,0,U,40552,999,50761,.56852E-3,.89E-6,0
GONETS-M 12,2015-020B,2026-06-08T03:03:12.114720,12.42891080,.001576,82.4906,37.7586,10.3322,349.8079,0,U,40553,999,50760,.29075E-3,.5E-6,0
GONETS-M 13,2015-020C,2026-06-08T04:20:42.760608,12.42870165,.0014088,82.4868,36.3428,355.9351,4.1612,0,U,40554,999,50758,.45438E-3,.73E-6,0
DMC3-FM1,2015-032A,2026-06-08T04:20:12.099840,14.85728600,.0007169,97.6469,24.7083,82.9231,277.2800,0,U,40715,999,58857,.96471E-4,.786E-5,0
DMC3-FM2,2015-032B,2026-06-08T03:15:01.240992,14.85736662,.0007725,97.6525,26.2325,87.5359,272.6741,0,U,40716,999,58856,.14117E-3,.1175E-4,0
DMC3-FM3,2015-032C,2026-06-08T03:48:31.230720,14.85722840,.0006867,97.6577,28.0020,86.4088,273.7913,0,U,40717,999,58857,.29421E-4,.204E-5,0
CARBONITE 1 (CBNT-1),2015-032D,2026-06-08T05:05:31.416288,14.83561197,.0013807,97.6510,337.6551,330.0860,29.9565,0,U,40718,999,58801,.21147E-3,.1693E-4,0
LILACSAT-2,2015-049K,2026-06-08T04:15:06.460704,15.51148907,.0005277,97.4659,195.6778,288.9416,71.1263,0,U,40908,999,59435,.31311E-3,.18201E-3,0
COSMOS 2507 (RODNIK-S 13),2015-050A,2026-06-08T03:16:21.415872,12.42926657,.0010591,82.4922,85.3049,15.6827,344.4579,0,U,40920,999,48573,.45952E-3,.74E-6,0
COSMOS 2508 (RODNIK-S 14),2015-050B,2026-06-08T04:07:22.381248,12.42914105,.0015398,82.4874,83.7913,45.3109,314.9222,0,U,40921,999,48572,.618E-3,.96E-6,0
COSMOS 2509 (RODNIK-S 15),2015-050C,2026-06-08T04:36:20.306880,12.42883638,.0015845,82.4883,83.8802,61.2514,299.0155,0,U,40922,999,48576,.63836E-3,.98E-6,0
